GLOBALSTAR M067         
1 32263U 07048A   25044.45036998 -.00000101  00000+0 -24947-4 0  9997
2 32263  51.9742  37.9939 0001161  83.3695  82.8887 12.40665940794120
GLOBALSTAR M070         
1 32264U 07048B   25044.52341649 -.00000077  00000+0  15018-3 0  9997
2 32264  51.9744 145.2323 0000812 131.1404 242.7130 12.62311797798051
GLOBALSTAR M066         
1 32265U 07048C   25044.28677758 -.00000089  00000+0  66547-4 0  9991
2 32265  51.9690  24.5993 0000242  61.1827  76.3673 12.42170565799982
GLOBALSTAR M068         
1 32266U 07048D   25044.46509715 -.00000070  00000+0  18773-3 0  9996
2 32266  51.9905 319.4034 0000393 189.6956 342.6850 12.62815044801924
GLOBALSTAR M079         
1 37188U 10054A   25044.56013462 -.00000099  00000+0  28104-4 0  9996
2 37188  52.0032 156.1277 0000851  90.2308 282.4299 12.62270700660843
GLOBALSTAR M074         
1 37189U 10054B   25044.58672108 -.00000103  00000+0  21732-5 0  9994
2 37189  52.0007 155.3888 0000972 115.3361 257.5350 12.62262544661453
GLOBALSTAR M076         
1 37190U 10054C   25044.61269819 -.00000106  00000+0 -14699-4 0  9998
2 37190  52.0021 155.4666 0001130  99.5978 273.3363 12.62277528661177
GLOBALSTAR M077         
1 37191U 10054D   25044.54841400 -.00000067  00000+0  20579-3 0  9991
2 37191  52.0067 112.4867 0000650 118.5740  20.2013 12.62270834662275
